[{"OBJECT_NAME":"UHETSAT","OBJECT_ID":"2023-185E","EPOCH":"2026-03-09T22:39:26.455680","MEAN_MOTION":15.29797662,"ECCENTRICITY":0.00118435,"INCLINATION":97.3584,"RA_OF_ASC_NODE":137.3576,"ARG_OF_PERICENTER":307.7346,"MEAN_ANOMALY":52.2821,"EPHEMERIS_TYPE":0,"CLASSIFICATION_TYPE":"U","NORAD_CAT_ID":58466,"ELEMENT_SET_NO":999,"REV_AT_EPOCH":12611,"BSTAR":0.00030513019,"MEAN_MOTION_DOT":8.749e-5,"MEAN_MOTION_DDOT":0},{"OBJECT_NAME":"STARLINK-34504","OBJECT_ID":"2025-137G","EPOCH":"2026-03-09T23:27:44.697024","MEAN_MOTION":15.30210515,"ECCENTRICITY":8.455e-5,"INCLINATION":53.1584,"RA_OF_ASC_NODE":334.2838,"ARG_OF_PERICENTER":119.8087,"MEAN_ANOMALY":240.2998,"EPHEMERIS_TYPE":0,"CLASSIFICATION_TYPE":"U","NORAD_CAT_ID":64600,"ELEMENT_SET_NO":999,"REV_AT_EPOCH":4077,"BSTAR":0.00082856107,"MEAN_MOTION_DOT":0.00024269,"MEAN_MOTION_DDOT":0}]
